SCD 1                   
1 22490U 93009B   26165.62533624  .00000369  00000+0  49930-4 0  9995
2 22490  24.9680 223.3964 0042141 110.7073  23.6278 14.46118084760747
TECHSAT 1B (GO-32)      
1 25397U 98043D   26165.53564160  .00000043  00000+0  38754-4 0  9997
2 25397  99.0066 158.2273 0000913 168.5356 191.5843 14.24427952450957
SCD 2                   
1 25504U 98060A   26165.49224642  .00000365  00000+0  50974-4 0  9994
2 25504  24.9950  88.7767 0016976  94.8048  66.0761 14.45524918459931
DLR-TUBSAT              
1 25757U 99029B   26165.53782196  .00000067  00000+0  28432-4 0  9991
2 25757  98.6695 160.9547 0014219   3.3061 356.8225 14.52426283432864
TERRA                   
1 25994U 99068A   26165.49902450  .00000343  00000+0  78741-4 0  9994
2 25994  97.9457 215.1518 0001369 199.3330 302.4932 14.61101134409213
MAROC-TUBSAT            
1 27004U 01056D   26165.44503840 -.00000026  00000+0  23482-4 0  9994
2 27004  99.8080 342.2529 0020239 148.1176 266.0725 13.70262390225819
AQUA                    
1 27424U 02022A   26165.59021419  .00000684  00000+0  14580-3 0  9994
2 27424  98.4276 134.8211 0001204  53.6401   5.5208 14.62154575282892
SHIYAN-1 (SY-1)         
1 28220U 04012A   26165.11722427  .00013905  00000+0  42897-3 0  9997
2 28220  97.8697 242.9858 0005869  43.2331 316.9370 15.33691010210623
AURA                    
1 28376U 04026A   26165.58960180  .00000670  00000+0  14532-3 0  9995
2 28376  98.3417 122.0214 0001237  73.8390 286.2947 14.61325558165836
IRS-P5 (CARTOSAT-1)     
1 28649U 05017A   26165.52816884  .00001230  00000+0  12958-3 0  9997
2 28649  97.5308 188.7132 0002664  83.1000 277.0522 14.91042968143426
SINAH 1                 
1 28893U 05043D   26165.59394540  .00000274  00000+0  61450-4 0  9993
2 28893  98.2856 299.9007 0013161 285.7264  74.2486 14.64156101100148
RESURS-DK 1             
1 29228U 06021A   26165.52343166  .00002421  00000+0  14203-3 0  9993
2 29228  69.9339 346.4480 0006829 293.8044  66.2406 15.13208440102171
ARIRANG-2 (KOMPSAT-2)   
1 29268U 06031A   26165.63393847  .00000261  00000+0  57521-4 0  9992
2 29268  97.8302 350.2043 0015933  81.9473   7.7623 14.64658675 61103
LAPAN-TUBSAT            
1 29709U 07001A   26165.62816398  .00001139  00000+0  13695-3 0  9998
2 29709  98.1336 164.7942 0011677 187.5966 172.5073 14.85950365 50776
HAIYANG-1B              
1 31113U 07010A   26165.55775878  .00000069  00000+0  42234-4 0  9992
2 31113  98.3494 147.5049 0012845 204.4538 155.6038 14.31026272   268
COSMO-SKYMED 1          
1 31598U 07023A   26165.66202428  .00002403  00000+0  21355-3 0  9995
2 31598  97.8840 357.4968 0001111  97.9359 262.1988 14.97088321 29417
TERRASAR-X              
1 31698U 07026A   26165.55699354  .00000380  00000+0  21289-4 0  9994
2 31698  97.4461 173.3010 0001800  95.8158 264.3282 15.19148207 52822
WORLDVIEW-1 (WV-1)      
1 32060U 07041A   26165.60050482  .00005770  00000+0  23941-3 0  9998
2 32060  97.3876 285.3811 0002503  28.7714 331.3662 15.24241813 42483
YAOGAN-3                
1 32289U 07055A   26165.64389699  .00002694  00000+0  27974-3 0  9997
2 32289  97.8155 195.5470 0002025  86.7192 273.4258 14.90776026  5495
COSMO-SKYMED 2          
1 32376U 07059A   26165.66315559  .00000345  00000+0  49937-4 0  9999
2 32376  97.8885 349.2977 0001382  86.6694 273.4677 14.82153161  1630
RADARSAT-2              
1 32382U 07061A   26165.58883126 -.00000145  00000+0 -39320-4 0  9995
2 32382  98.5774 172.5581 0001295  82.8884 277.2446 14.29980636965587
CARTOSAT-2A             
1 32783U 08021A   26165.61134898  .00000736  00000+0  10568-3 0  9992
2 32783  97.7639 214.4078 0013072 116.3234 243.9322 14.79235389978421
HUANJING 1A (HJ-1A)     
1 33320U 08041A   26165.60406904  .00001453  00000+0  18017-3 0  9995
2 33320  97.6675 151.5421 0019760 142.6426 217.6167 14.83983056958021
HUANJING 1B (HJ-1B)     
1 33321U 08041B   26165.63943002  .00000242  00000+0  35588-4 0  9992
2 33321  97.6511 154.7552 0035768 189.4448 170.6098 14.83310741958037
GEOEYE 1                
1 33331U 08042A   26165.55601580  .00000410  00000+0  85860-4 0  9992
2 33331  98.1236 239.5205 0005482  76.0078 284.1735 14.64723522949768
THEOS                   
1 33396U 08049A   26165.57336311  .00000444  00000+0  22816-3 0  9997
2 33396  98.5578 222.9419 0001237  79.6222 280.5095 14.20133922917595
COSMO-SKYMED 3          
1 33412U 08054A   26165.61992569  .00003503  00000+0  23827-3 0  9992
2 33412  97.8286  24.1481 0014370 276.3103  83.6487 15.06938415956550
YAOGAN-4                
1 33446U 08061A   26165.40111431  .00000892  00000+0  11565-3 0  9999
2 33446  97.9308  98.9319 0015749  80.6521 279.6472 14.83195216945257
GOSAT (IBUKI)           
1 33492U 09002A   26165.54743529  .00001007  00000+0  18613-3 0  9990
2 33492  98.0891 276.6617 0001517  86.4252 273.7126 14.67540145931079
DEIMOS-1                
1 35681U 09041A   26165.60894375  .00000756  00000+0  11884-3 0  9991
2 35681  97.7391 322.9484 0001442 132.4281 227.7051 14.75236054906506
