OBJECT_NAME,OBJECT_ID,EPOCH,MEAN_MOTION,ECCENTRICITY,INCLINATION,RA_OF_ASC_NODE,ARG_OF_PERICENTER,MEAN_ANOMALY,EPHEMERIS_TYPE,CLASSIFICATION_TYPE,NORAD_CAT_ID,ELEMENT_SET_NO,REV_AT_EPOCH,BSTAR,MEAN_MOTION_DOT,MEAN_MOTION_DDOT
SCD 1,1993-009B,2026-06-14T15:00:29.051136,14.46118084,.0042141,24.9680,223.3964,110.7073,23.6278,0,U,22490,999,76074,.49930256E-4,.369E-5,0
TECHSAT 1B (GO-32),1998-043D,2026-06-14T12:51:19.434240,14.24427952,.00009138,99.0066,158.2273,168.5356,191.5843,0,U,25397,999,45095,.38753809E-4,.43E-6,0
SCD 2,1998-060A,2026-06-14T11:48:50.090688,14.45524918,.00169768,24.9950,88.7767,94.8048,66.0761,0,U,25504,999,45993,.50974479E-4,.365E-5,0
DLR-TUBSAT,1999-029B,2026-06-14T12:54:27.817344,14.52426283,.00142193,98.6695,160.9547,3.3061,356.8225,0,U,25757,999,43286,.28432214E-4,.67E-6,0
TERRA,1999-068A,2026-06-14T11:58:35.716800,14.61101134,.00013699,97.9457,215.1518,199.3330,302.4932,0,U,25994,999,40921,.78741342E-4,.343E-5,0
MAROC-TUBSAT,2001-056D,2026-06-14T10:40:51.317760,13.70262390,.00202397,99.8080,342.2529,148.1176,266.0725,0,U,27004,999,22581,.23481965E-4,-.26E-6,0
AQUA,2002-022A,2026-06-14T14:09:54.506016,14.62154575,.00012042,98.4276,134.8211,53.6401,5.5208,0,U,27424,999,28289,.14580251E-3,.684E-5,0
SHIYAN-1 (SY-1),2004-012A,2026-06-14T02:48:48.176928,15.33691010,.00058692,97.8697,242.9858,43.2331,316.9370,0,U,28220,999,21062,.42897355E-3,.13905E-3,0
AURA,2004-026A,2026-06-14T14:09:01.595520,14.61325558,.00012373,98.3417,122.0214,73.8390,286.2947,0,U,28376,999,16583,.1453196E-3,.67E-5,0
IRS-P5 (CARTOSAT-1),2005-017A,2026-06-14T12:40:33.787776,14.91042968,.00026641,97.5308,188.7132,83.1000,277.0522,0,U,28649,999,14342,.12957633E-3,.123E-4,0
SINAH 1,2005-043D,2026-06-14T14:15:16.882560,14.64156101,.0013161,98.2856,299.9007,285.7264,74.2486,0,U,28893,999,10014,.61449528E-4,.274E-5,0
RESURS-DK 1,2006-021A,2026-06-14T12:33:44.495424,15.13208440,.00068291,69.9339,346.4480,293.8044,66.2406,0,U,29228,999,10217,.14202581E-3,.2421E-4,0
ARIRANG-2 (KOMPSAT-2),2006-031A,2026-06-14T15:12:52.283808,14.64658675,.00159337,97.8302,350.2043,81.9473,7.7623,0,U,29268,999,6110,.57521322E-4,.261E-5,0
LAPAN-TUBSAT,2007-001A,2026-06-14T15:04:33.367872,14.85950365,.00116776,98.1336,164.7942,187.5966,172.5073,0,U,29709,999,5077,.13694569E-3,.1139E-4,0
HAIYANG-1B,2007-010A,2026-06-14T13:23:10.358592,14.31026272,.00128457,98.3494,147.5049,204.4538,155.6038,0,U,31113,999,26,.42234064E-4,.69E-6,0
COSMO-SKYMED 1,2007-023A,2026-06-14T15:53:18.897792,14.97088321,.00011111,97.8840,357.4968,97.9359,262.1988,0,U,31598,999,2941,.213555E-3,.2403E-4,0
TERRASAR-X,2007-026A,2026-06-14T13:22:04.241856,15.19148207,.00018002,97.4461,173.3010,95.8158,264.3282,0,U,31698,999,5282,.21289021E-4,.38E-5,0
WORLDVIEW-1 (WV-1),2007-041A,2026-06-14T14:24:43.616448,15.24241813,.00025039,97.3876,285.3811,28.7714,331.3662,0,U,32060,999,4248,.23940557E-3,.577E-4,0
YAOGAN-3,2007-055A,2026-06-14T15:27:12.699936,14.90776026,.0002025,97.8155,195.5470,86.7192,273.4258,0,U,32289,999,549,.27973655E-3,.2694E-4,0
COSMO-SKYMED 2,2007-059A,2026-06-14T15:54:56.642976,14.82153161,.00013828,97.8885,349.2977,86.6694,273.4677,0,U,32376,999,163,.49936742E-4,.345E-5,0
RADARSAT-2,2007-061A,2026-06-14T14:07:55.020864,14.29980636,.00012959,98.5774,172.5581,82.8884,277.2446,0,U,32382,999,96558,-.39319717E-4,-.145E-5,0
CARTOSAT-2A,2008-021A,2026-06-14T14:40:20.551872,14.79235389,.00130727,97.7639,214.4078,116.3234,243.9322,0,U,32783,999,97842,.10568017E-3,.736E-5,0
HUANJING 1A (HJ-1A),2008-041A,2026-06-14T14:29:51.565056,14.83983056,.00197606,97.6675,151.5421,142.6426,217.6167,0,U,33320,999,95802,.18017205E-3,.1453E-4,0
HUANJING 1B (HJ-1B),2008-041B,2026-06-14T15:20:46.753728,14.83310741,.00357686,97.6511,154.7552,189.4448,170.6098,0,U,33321,999,95803,.3558848E-4,.242E-5,0
GEOEYE 1,2008-042A,2026-06-14T13:20:39.765120,14.64723522,.00054826,98.1236,239.5205,76.0078,284.1735,0,U,33331,999,94976,.85860344E-4,.41E-5,0
THEOS,2008-049A,2026-06-14T13:45:38.572704,14.20133922,.00012373,98.5578,222.9419,79.6222,280.5095,0,U,33396,999,91759,.22816445E-3,.444E-5,0
COSMO-SKYMED 3,2008-054A,2026-06-14T14:52:41.579616,15.06938415,.00143705,97.8286,24.1481,276.3103,83.6487,0,U,33412,999,95655,.23827406E-3,.3503E-4,0
YAOGAN-4,2008-061A,2026-06-14T09:37:36.276384,14.83195216,.00157493,97.9308,98.9319,80.6521,279.6472,0,U,33446,999,94525,.11565201E-3,.892E-5,0
GOSAT (IBUKI),2009-002A,2026-06-14T13:08:18.409056,14.67540145,.0001517,98.0891,276.6617,86.4252,273.7126,0,U,33492,999,93107,.18612578E-3,.1007E-4,0
DEIMOS-1,2009-041A,2026-06-14T14:36:52.740000,14.75236054,.00014427,97.7391,322.9484,132.4281,227.7051,0,U,35681,999,90650,.1188418E-3,.756E-5,0
